[{"OBJECT_NAME":"JILIN-1 06","OBJECT_ID":"2017-074C","EPOCH":"2026-03-09T22:46:57.173376","MEAN_MOTION":15.32444387,"ECCENTRICITY":0.00061285,"INCLINATION":97.4715,"RA_OF_ASC_NODE":171.0354,"ARG_OF_PERICENTER":223.0031,"MEAN_ANOMALY":137.0732,"EPHEMERIS_TYPE":0,"CLASSIFICATION_TYPE":"U","NORAD_CAT_ID":43024,"ELEMENT_SET_NO":999,"REV_AT_EPOCH":45863,"BSTAR":0.00028431628,"MEAN_MOTION_DOT":8.833e-5,"MEAN_MOTION_DDOT":0},{"OBJECT_NAME":"STARLINK-33618","OBJECT_ID":"2025-063M","EPOCH":"2026-03-09T22:21:53.761536","MEAN_MOTION":15.30222717,"ECCENTRICITY":0.00016959,"INCLINATION":53.1607,"RA_OF_ASC_NODE":48.6989,"ARG_OF_PERICENTER":89.6814,"MEAN_ANOMALY":270.4381,"EPHEMERIS_TYPE":0,"CLASSIFICATION_TYPE":"U","NORAD_CAT_ID":63374,"ELEMENT_SET_NO":999,"REV_AT_EPOCH":5483,"BSTAR":0.0013630213,"MEAN_MOTION_DOT":0.00040257,"MEAN_MOTION_DDOT":0}]
